OSCAR 7 (AO-7)          
1 07530U 74089B   26244.98047171 -.00000053  00000+0 -39359-4 0  9990
2 07530 101.9921 259.0302 0012172 346.5329  40.1123 12.53699384370142
PHASE 3B (AO-10)        
1 14129U 83058B   26242.16855161  .00000060  00000+0  00000+0 0  9994
2 14129  25.9697 207.4458 5986692 135.9620 291.3892  2.05869079297017
UOSAT 2 (UO-11)         
1 14781U 84021B   26244.86798372  .00001040  00000+0  11093-3 0  9995
2 14781  97.8144 209.6282 0006198 296.5601  63.4981 14.90962908268553
LUSAT (LO-19)           
1 20442U 90005G   26244.78741840  .00000034  00000+0  28989-4 0  9999
2 20442  98.8834 268.6965 0011221 347.0547  13.0347 14.34141291913374
EYESAT A (AO-27)        
1 22825U 93061C   26244.70584101  .00000043  00000+0  33451-4 0  9998
2 22825  98.6815 312.0668 0007493 230.7697 129.2822 14.30958797717948
ITAMSAT (IO-26)         
1 22826U 93061D   26244.94201223  .00000048  00000+0  34932-4 0  9996
2 22826  98.6761 312.2282 0008273 211.8221 148.2463 14.31387443718299
RADIO ROSTO (RS15)      
1 23439U 94085A   26244.83201871 -.00000027  00000+0  44565-3 0  9991
2 23439  64.8163 179.2576 0158738 350.0213   9.7571 11.27584037304547
JAS-2 (FO-29)           
1 24278U 96046B   26244.53558672 -.00000031  00000+0  70737-5 0  9990
2 24278  98.5182  82.9418 0348828 258.2767  97.9044 13.53277583483495
TECHSAT 1B (GO-32)      
1 25397U 98043D   26244.55865491  .00000022  00000+0  29634-4 0  9992
2 25397  99.0137 239.2669 0001679  38.1731 321.9566 14.24440837462203
ISS (ZARYA)             
1 25544U 98067A   26244.82109580  .00003941  00000+0  79770-4 0  9991
2 25544  51.6312 280.7992 0005057  97.7612 262.3951 15.48962480583636
PCSAT (NO-44)           
1 26931U 01043C   26244.84889002  .00000039  00000+0  45375-4 0  9995
2 26931  67.0505  45.9838 0005658 271.0383  89.0070 14.31979976301421
SAUDISAT 1C (SO-50)     
1 27607U 02058C   26244.28270518  .00000628  00000+0  91764-4 0  9994
2 27607  64.5504 253.5209 0072725 248.5116 110.8225 14.83188356275745
CUTE-1 (CO-55)          
1 27844U 03031E   26244.95754982  .00000165  00000+0  90494-4 0  9990
2 27844  98.6768 252.5619 0008903 329.2871  30.7786 14.24375401202605
CUBESAT XI-IV (CO-57)   
1 27848U 03031J   26244.77384668  .00000128  00000+0  75379-4 0  9998
2 27848  98.6798 252.0313 0009212 349.5757  10.5229 14.23654881202272
MOZHAETS 4 (RS22)       
1 27939U 03042A   26244.96301339  .00000561  00000+0  94338-4 0  9993
2 27939  98.3483  71.5096 0011993  30.7696 127.6372 14.73583630226850
CUBESAT XI-V            
1 28895U 05043F   26244.36188394  .00000845  00000+0  14046-3 0  9998
2 28895  98.3084  41.6351 0013251 328.4656  31.5755 14.72800902112960
CUTE-1.7+APD II (CO-65) 
1 32785U 08021C   26244.93073689  .00002619  00000+0  16492-3 0  9991
2 32785  97.8358 228.0138 0010211 121.4731 238.7497 15.10069922996778
SEEDS II (CO-66)        
1 32791U 08021J   26244.52237218  .00013188  00000+0  38859-3 0  9997
2 32791  97.7563 246.2243 0004291  67.5149 292.6547 15.35163759998996
YUBILEINY (RS30)        
1 32953U 08025A   26244.95506051  .00000110  00000+0  71510-3 0  9994
2 32953  82.5049 307.6977 0020432 141.9534 218.2993 12.43182808829234
KKS-1 (KISEKI)          
1 33499U 09002H   26244.89381157  .00000900  00000+0  11673-3 0  9998
2 33499  98.1157 168.5473 0008979  48.2842 311.9138 14.83288521947565
SWISSCUBE               
1 35932U 09051B   26244.72433667  .00000651  00000+0  13778-3 0  9993
2 35932  98.3955 153.9212 0006529 346.8361  13.2668 14.62605254900346
BEESAT-1                
1 35933U 09051C   26244.97949001  .00000517  00000+0  11332-3 0  9990
2 35933  98.3879 153.6533 0005359   3.3733 356.7502 14.61824396900401
ITUPSAT1                
1 35935U 09051E   26244.28424686  .00000498  00000+0  11265-3 0  9996
2 35935  98.3960 152.0573 0007821  12.8053 347.3344 14.60535895899844
XIWANG-1 (HOPE-1)       
1 36122U 09072B   26244.92693547  .00000095  00000+0  36397-3 0  9999
2 36122 100.4096 197.5524 0008157  60.5827 299.6100 13.16440917803103
O/OREOS (USA 219)       
1 37224U 10062C   26244.46753482  .00001237  00000+0  12170-3 0  9990
2 37224  71.9678 267.5125 0016597 279.0779  80.8513 14.93997027128035
JUGNU                   
1 37839U 11058B   26244.23328418  .00000393  00000+0  65393-4 0  9998
2 37839  19.9594 206.4101 0018587 195.7613 194.6042 14.13794641769800
SRMSAT                  
1 37841U 11058D   26244.50810378  .00000360  00000+0  51540-4 0  9995
2 37841  19.9727 317.5106 0011717 324.6473 165.6447 14.11589784768618
STRAND-1                
1 39090U 13009E   26244.49963397  .00000153  00000+0  65709-4 0  9991
2 39090  98.3965  62.8782 0008814  11.2474 348.8908 14.37200949708022
ZACUBE-1 (TSHEPISOSAT)  
1 39417U 13066B   26244.84995614  .00004200  00000+0  32213-3 0  9993
2 39417  97.8082 207.5621 0041203 356.7369   3.3580 15.01696883692230
GOMX-1                  
1 39430U 13066Q   26244.78562147  .00001818  00000+0  27723-3 0  9994
2 39430  97.6442  80.4204 0127654 190.7109 169.1375 14.69658178681162
CUBEBUG-2 (LO-74)       
1 39440U 13066AA  26244.81694991  .00002734  00000+0  25238-3 0  9999
2 39440  97.8965 194.1670 0058298 131.9225 228.6987 14.94201482688435
FUNCUBE-1 (AO-73)       
1 39444U 13066AE  26244.86171429  .00005248  00000+0  31896-3 0  9994
2 39444  97.8365 217.9932 0033946 304.6243  55.1786 15.10453064691236
UWE-3                   
1 39446U 13066AG  26244.80340292  .00002663  00000+0  22834-3 0  9996
2 39446  97.8766 201.4442 0049602  64.5235 296.1106 14.97465451689042
UNISAT-6                
1 40012U 14033C   26244.36908899  .00002493  00000+0  26894-3 0  9997
2 40012  97.7983  35.8025 0044853 175.4577 184.7056 14.88564974657493
DUCHIFAT-1              
1 40021U 14033M   26244.95142895  .00426331  72976-4  12420-2 0  9994
2 40021  98.0299 316.2094 0006156 230.4021 129.6708 15.92817774667835
QB50P1                  
1 40025U 14033R   26244.57420146  .00004998  00000+0  24031-3 0  9991
2 40025  98.0975 261.1421 0007550 334.7069  25.3793 15.19304570664625
LILACSAT-2              
1 40908U 15049K   26244.83547824  .00013980  00000+0  21850-3 0  9998
2 40908  97.4579 284.6950 0005550 347.8401  12.2717 15.53888940607644
FOX-1A (AO-85)          
1 40967U 15058D   26244.87494727  .00001345  00000+0  12784-3 0  9998
2 40967  64.7738  40.5826 0136756  27.7637 333.0687 14.91351139125003
CAS-2T & KS-1Q          
1 41847U 16066G   26244.76637727  .00000445  00000+0  72605-4 0  9992
2 41847  98.3768 319.6244 0340037 257.1337  99.1671 14.44822507515855
RADFXSAT (FOX-1B)       
1 43017U 17073E   26244.58508096  .00006549  00000+0  27851-3 0  9991
2 43017  97.4575 110.2401 0149246  64.8456 296.8171 15.13724344476940
DIWATA-2B               
1 43678U 18084H   26244.85375582  .00001430  00000+0  11805-3 0  9995
2 43678  98.1187  84.4365 0010697 273.9489  86.0510 15.00696517427710
ES'HAIL 2               
1 43700U 18090A   26244.89232748  .00000147  00000+0  00000+0 0  9993
2 43700   0.0278 248.8174 0002626 308.9032 130.3730  1.00272739 28444
FOX-1CLIFF (AO-95)      
1 43770U 18099N   26244.72465582  .00007770  00000+0  28513-3 0  9997
2 43770  97.4309 304.7390 0009913  80.7822 279.4538 15.28189699424905
ITASAT                  
1 43786U 18099AE  26244.67551318  .00004332  00000+0  20443-3 0  9996
2 43786  97.3955 294.6766 0014026  86.6905 273.5935 15.19894489424524
JY1SAT (JO-97)          
1 43803U 18099AX  26244.70191929  .00011734  00000+0  33743-3 0  9999
2 43803  97.4052 307.8978 0005178  14.5399 345.5993 15.35943246425361
UWE-4                   
1 43880U 18111E   26244.53594363  .00029497  00000+0  51115-3 0  9997
2 43880  97.5816 176.7042 0009181  60.9323 299.2847 15.50814190422597
TIANYAN 01              
1 44881U 19093C   26244.91301063  .00000615  00000+0  75280-4 0  9995
2 44881  97.7474 315.2544 0013033 188.0808 172.0200 14.86620296362818
RS-44 & BREEZE-KM R/B   
1 44909U 19096E   26244.85552256  .00000008  00000+0 -58286-5 0  9999
2 44909  82.5194 288.7662 0216785 325.3728  33.3414 12.79749127312154
SALSAT                  
1 46495U 20068K   26244.58485128  .00005176  00000+0  17670-3 0  9995
2 46495  97.8885 252.3709 0010567  43.2362 316.9705 15.30766612327046
XW-3 (CAS-9)            
1 50466U 21131B   26244.96939006  .00000216  00000+0  80267-4 0  9994
2 50466  98.4979 336.9426 0003282 213.3258 146.7725 14.41416102246177
GREENCUBE (IO-117)      
1 53109U 22080E   26244.44611714 -.00000003  00000+0  00000+0 0  9998
2 53109  70.1242 271.7238 0009246 272.8927  87.0675  6.42583734 96969
UMKA 1 (RS40S)          
1 57172U 23091G   26244.92393660  .00003787  00000+0  17085-3 0  9991
2 57172  97.4974 303.3371 0011796 204.4854 155.5823 15.21565372175677
CUBESX-HSE 3 (RS42S)    
1 57178U 23091N   26244.91577099  .00008545  00000+0  27083-3 0  9992
2 57178  97.5017 311.5403 0010479 171.5056 188.6365 15.32919410176176
MONITOR-3 (RS58S)       
1 57180U 23091Q   26244.92229888  .00007259  00000+0  25860-3 0  9998
2 57180  97.5007 308.9774 0011226 180.5058 179.6173 15.29182028176015
MONITOR-4 (RS57S)       
1 57182U 23091S   26244.89693113  .00006644  00000+0  23628-3 0  9999
2 57182  97.5000 308.9273 0011211 180.8841 179.2381 15.29274250176017
MONITOR-2 (RS39S)       
1 57184U 23091U   26244.91356369  .00003177  00000+0  15270-3 0  9995
2 57184  97.4995 302.7028 0010460 197.1905 162.8976 15.19512009175606
SVYATOBOR 1 (RS60S)     
1 57187U 23091X   26244.91584500  .00005945  00000+0  22187-3 0  9998
2 57187  97.5013 309.1913 0009341 172.1834 187.9553 15.27749929176023
VIZARD-METEO (RS38S)    
1 57189U 23091Z   26244.89743857  .00012628  00000+0  33680-3 0  9995
2 57189  97.5020 316.0187 0007729 146.9839 213.1890 15.38257770176470
POLYTECH-UNIVERSE 3 (R*)
1 57191U 23091AB  26244.93001769  .00002861  00000+0  13686-3 0  9994
2 57191  97.4972 302.2239 0014220 216.8840 143.1418 15.19728961175602
UTMN 2 (RS27S)          
1 57203U 23091AP  26244.89249860  .00009049  00000+0  27959-3 0  9992
2 57203  97.5014 313.2426 0008262 156.0628 204.1000 15.33730526176299
KUZGTU 1 (RS47S)        
1 57217U 23091AV  26244.91335678  .00008139  00000+0  27047-3 0  9990
2 57217  97.4988 310.2326 0010630 175.8796 184.2534 15.31408103176118
SONATE-2                
1 59112U 24043Q   26244.71179944  .00040996  00000+0  42292-3 0  9990
2 59112  97.5613  40.1884 0004997 275.8843  84.1846 15.64689385139832
MESAT1                  
1 60209U 24125G   26244.56907351  .00068852  00000+0  50058-3 0  9994
2 60209  97.2143 104.2683 0005166 284.8118  75.2574 15.73137422121536
GRBBETA                 
1 60237U 24128C   26244.59801801  .00002195  00000+0  15847-3 0  9999
2 60237  61.9902 308.0825 0029649 151.4166 208.8561 15.07113517117782
OOV-CUBE (TUBSAT-30)    
1 60240U 24128F   26244.63474359  .00001260  00000+0  10757-3 0  9999
2 60240  61.9961 318.9477 0034039 151.3650 208.9320 15.03059918117605
COLIBRI-S (RS67S)       
1 61746U 24199M   26244.92346199  .00017237  00000+0  30008-3 0  9993
2 61746  97.2839 119.5930 0008093  17.0186 343.1336 15.50798252149297
HORS 3 (RS81S)          
1 61753U 24199U   26244.92269946  .00033826  00000+0  41095-3 0  9995
2 61753  97.2827 122.5400 0005386  24.3635 335.7876 15.60500011149505
HORS 4 (RS82S)          
1 61754U 24199V   26244.91612857  .00053185  00000+0  48411-3 0  9997
2 61754  97.2760 124.3581 0003783  24.7818 335.3624 15.67777253149630
SIT-2086                
1 61764U 24199AF  26244.92951144  .00033937  00000+0  44282-3 0  9999
2 61764  97.2782 122.7564 0005015   3.9271 356.2023 15.58611423146368
ALTAIR (RS65S)          
1 61779U 24199AW  26244.90113164  .00005870  00000+0  15723-3 0  9998
2 61779  97.2902 113.7697 0013331  37.1847 323.0319 15.38310080148908
ASRTU-1 (AO-123)        
1 61781U 24199AY  26244.89843335  .00005484  00000+0  15483-3 0  9993
2 61781  97.2872 112.8838 0014586  39.4037 320.8266 15.36682979145701
SAMSAT-IONOSPHERE (RS7*)
1 61784U 24199BB  26244.91325542  .00049132  00000+0  49889-3 0  9999
2 61784  97.2784 122.9473 0006400  17.3846 342.7632 15.65042367149530
RTU MIREA 1 (RS51S)     
1 61785U 24199BC  26244.90678857  .00074670  00000+0  59216-3 0  9999
2 61785  97.2765 124.2908 0005125  19.6168 340.5291 15.71050679146472
LASARSAT                
1 62391U 24247Q   26244.86175210  .00032314  00000+0  54419-3 0  9996
2 62391  44.9717 189.8201 0007496 113.0698 247.0984 15.51157422 95201
CROCUBE                 
1 62394U 24247T   26244.87605463  .00037648  00000+0  57345-3 0  9994
2 62394  44.9694 185.5727 0007945 124.3713 235.7933 15.53876974 95251
TEVEL2-4                
1 63213U 25052D   26244.66968690  .00014084  00000+0  38942-3 0  9992
2 63213  97.3779 141.2816 0002919 145.0403 215.1033 15.37131761 81852
TEVEL2-5                
1 63214U 25052E   26244.63469826  .00013247  00000+0  36905-3 0  9994
2 63214  97.3777 141.1704 0002786 145.1040 215.0388 15.36913063 81849
TEVEL2-6                
1 63215U 25052F   26244.64876092  .00013984  00000+0  38980-3 0  9996
2 63215  97.3782 141.1694 0002710 146.2179 213.9239 15.36883190 81845
TEVEL2-1                
1 63217U 25052H   26244.64147885  .00012471  00000+0  35502-3 0  9996
2 63217  97.3754 140.6896 0002349 159.0725 201.0616 15.36253484 81823
TEVEL2-3                
1 63218U 25052J   26244.69802697  .00012843  00000+0  36463-3 0  9991
2 63218  97.3760 140.7801 0002197 154.3301 205.8052 15.36330707 81838
TEVEL2-2                
1 63219U 25052K   26244.70634906  .00013036  00000+0  37077-3 0  9997
2 63219  97.3756 140.7588 0002374 160.2946 199.8391 15.36270048 81833
OTP-2                   
1 63235U 25052AB  26244.69684889  .00004317  00000+0  17646-3 0  9990
2 63235  97.3742 135.9898 0004303 246.7886 113.2899 15.24885997 81524
TEVEL2-9                
1 63237U 25052AD  26244.65690328  .00012233  00000+0  37298-3 0  9994
2 63237  97.3814 139.9078 0004429 211.1013 148.9969 15.34086975 81744
TEVEL2-7                
1 63238U 25052AE  26244.64868241  .00011365  00000+0  35061-3 0  9996
2 63238  97.3815 139.7801 0004408 211.4541 148.6439 15.33731143 81735
TEVEL2-8                
1 63239U 25052AF  26244.65759936  .00011177  00000+0  34498-3 0  9992
2 63239  97.3821 139.7640 0004471 213.2028 146.8934 15.33720395 81731
INNOSAT 16 (RS92S7)     
1 64878U 25155C   26244.92733661  .00004020  00000+0  15819-3 0  9998
2 64878  97.4654 211.8869 0008317 276.8852  83.1439 15.26197911 92373
GEOSCAN 6 (RS92S6)      
1 64879U 25155D   26244.92118160  .00007431  00000+0  24675-3 0  9999
2 64879  97.4642 213.8798 0005349 263.0879  96.9753 15.31505703 92507
GEOSCAN 1 (RS92S1)      
1 64880U 25155E   26244.95595358  .00007843  00000+0  25455-3 0  9996
2 64880  97.4639 214.1362 0005185 262.1959  97.8694 15.32221973 92524
239ALFEROV (RS61S)      
1 64881U 25155F   26244.93436901  .00010947  00000+0  32566-3 0  9993
2 64881  97.4635 214.9605 0004585 259.3713 100.7014 15.34900242 92578
GEOSCAN 2 (RS92S2)      
1 64890U 25155Q   26244.93679775  .00008104  00000+0  26094-3 0  9992
2 64890  97.4638 214.2987 0004700 242.0793 117.9973 15.32468066 92534
GEOSCAN 5 (RS92S5)      
1 64891U 25155R   26244.90828870  .00010792  00000+0  31816-3 0  9996
2 64891  97.4628 215.0993 0003484 266.8175  93.2669 15.35193470 92586
GEOSCAN 4 (RS92S4)      
1 64892U 25155S   26244.94899838  .00011175  00000+0  32733-3 0  9998
2 64892  97.4633 215.2142 0003347 266.0226  94.0634 15.35387689 92597
GEOSCAN 3 (RS92S3)      
1 64893U 25155T   26244.90345149  .00013343  00000+0  36041-3 0  9991
2 64893  97.4618 215.8466 0003109 263.7197  96.3693 15.37874933 92633
INNOSAT 3 (RS92S0)      
1 64894U 25155U   26244.91768974  .00036671  00000+0  66510-3 0  9991
2 64894  97.4551 218.5975 0001177 212.8049 147.3129 15.49519683 92822
KNACKSAT-2              
1 67683U 98067XZ  26244.34879061  .00045761  00000+0  41919-3 0  9995
2 67683  51.6253 269.3703 0007502 107.3662 252.8155 15.67271600 32191
MARINA                  
1 69920U 26156BD  26244.67606973  .00001748  00000+0  17734-3 0  9992
2 69920  97.7462 144.2077 0006897 339.8342  20.2604 14.92120726  8400
