OSCAR 7 (AO-7)          
1 07530U 74089B   26240.99051976 -.00000032  00000+0  91679-4 0  9994
2 07530 101.9921 254.9984 0012216 354.2069  32.1306 12.53699346369643
PHASE 3B (AO-10)        
1 14129U 83058B   26234.88657270 -.00000310  00000+0  00000+0 0  9994
2 14129  25.9661 208.6277 5988982 133.9728 294.5118  2.05871966296867
UOSAT 2 (UO-11)         
1 14781U 84021B   26240.63991060  .00001368  00000+0  14420-3 0  9995
2 14781  97.8137 205.4419 0006386 313.6290  46.4398 14.90952907267926
LUSAT (LO-19)           
1 20442U 90005G   26241.01996321  .00000078  00000+0  44611-4 0  9996
2 20442  98.8837 264.8262 0011430 358.2562   1.8580 14.34140615912831
EYESAT A (AO-27)        
1 22825U 93061C   26241.13976300  .00000079  00000+0  46957-4 0  9992
2 22825  98.6820 308.5049 0007360 242.6153 117.4281 14.30958142717435
ITAMSAT (IO-26)         
1 22826U 93061D   26241.16729358  .00000076  00000+0  45510-4 0  9996
2 22826  98.6769 308.4574 0008076 223.8126 136.2417 14.31386668717750
RADIO ROSTO (RS15)      
1 23439U 94085A   26241.10707847 -.00000057  00000+0 -40364-3 0  9999
2 23439  64.8157 185.2814 0158608 350.6692   9.1295 11.27584027304125
JAS-2 (FO-29)           
1 24278U 96046B   26240.09953045  .00000004  00000+0  42831-4 0  9992
2 24278  98.5185  79.1140 0348799 269.8259  86.2918 13.53277379482896
TECHSAT 1B (GO-32)      
1 25397U 98043D   26240.90605176  .00000039  00000+0  36981-4 0  9990
2 25397  99.0131 235.5195 0001827  43.3839 316.7482 14.24440315461683
ISS (ZARYA)             
1 25544U 98067A   26240.88552474  .00011482  00000+0  21677-3 0  9998
2 25544  51.6317 300.2698 0005025  85.3239 274.8323 15.48926310583021
PCSAT (NO-44)           
1 26931U 01043C   26240.86776830  .00000078  00000+0  60181-4 0  9992
2 26931  67.0500  56.2820 0005656 270.9596  89.0858 14.31978900300850
SAUDISAT 1C (SO-50)     
1 27607U 02058C   26240.50684806  .00000812  00000+0  11310-3 0  9997
2 27607  64.5507 265.2064 0072907 249.2044 110.1241 14.83182058275189
CUTE-1 (CO-55)          
1 27844U 03031E   26240.46180773  .00000240  00000+0  12254-3 0  9994
2 27844  98.6767 248.1213 0009161 343.0943  16.9929 14.24373405201961
CUBESAT XI-IV (CO-57)   
1 27848U 03031J   26240.48667683  .00000192  00000+0  10327-3 0  9995
2 27848  98.6795 247.7999 0009491   2.1243 357.9974 14.23653284201664
MOZHAETS 4 (RS22)       
1 27939U 03042A   26240.95709412  .00000475  00000+0  81178-4 0  9994
2 27939  98.3481  67.3882 0012185  42.7014 117.4475 14.73577179226262
CUBESAT XI-V            
1 28895U 05043F   26240.69320338  .00001108  00000+0  18143-3 0  9991
2 28895  98.3078  37.8839 0013480 340.6402  19.4291 14.72794165112424
CUTE-1.7+APD II (CO-65) 
1 32785U 08021C   26241.21994200  .00004964  00000+0  30896-3 0  9999
2 32785  97.8350 224.2190 0009999 132.0331 228.1751 15.10042807996219
SEEDS II (CO-66)        
1 32791U 08021J   26239.95943834  .00019894  00000+0  58733-3 0  9999
2 32791  97.7550 241.4251 0004589  76.0719 284.1034 15.35004299998299
YUBILEINY (RS30)        
1 32953U 08025A   26241.17259037  .00000098  00000+0  63278-3 0  9991
2 32953  82.5063 310.0497 0020332 149.8711 210.3543 12.43182527828767
KKS-1 (KISEKI)          
1 33499U 09002H   26241.04865773  .00001179  00000+0  15090-3 0  9999
2 33499  98.1157 164.6414 0009149  59.0663 301.1448 14.83280971946990
SWISSCUBE               
1 35932U 09051B   26240.68804775  .00000856  00000+0  17817-3 0  9991
2 35932  98.3957 149.8171 0006836 359.0098   1.1088 14.62599335899756
BEESAT-1                
1 35933U 09051C   26241.00949541  .00000688  00000+0  14756-3 0  9992
2 35933  98.3883 149.6253 0005644  15.0422 345.0945 14.61819545899827
ITUPSAT1                
1 35935U 09051E   26240.99584013  .00000642  00000+0  14219-3 0  9994
2 35935  98.3965 148.7244 0008037  22.2122 337.9424 14.60532209899365
XIWANG-1 (HOPE-1)       
1 36122U 09072B   26241.12698584  .00000063  00000+0  28008-3 0  9999
2 36122 100.4085 193.8111 0008207  68.5669 291.6319 13.16442003802606
O/OREOS (USA 219)       
1 37224U 10062C   26241.18656870  .00001538  00000+0  14986-3 0  9990
2 37224  71.9684 274.9480 0016561 284.5752  75.3581 14.93988739127540
JUGNU                   
1 37839U 11058B   26240.28079050  .00000392  00000+0  65029-4 0  9999
2 37839  19.9596 230.4255 0018700 152.2077 237.6700 14.13793588769244
SRMSAT                  
1 37841U 11058D   26240.97887624  .00000365  00000+0  54051-4 0  9995
2 37841  19.9732 338.8713 0011610 285.6379 231.2839 14.11589046768118
STRAND-1                
1 39090U 13009E   26241.01864000  .00000213  00000+0  85864-4 0  9998
2 39090  98.3963  59.4806 0009023  21.1922 338.9637 14.37199607707521
ZACUBE-1 (TSHEPISOSAT)  
1 39417U 13066B   26241.11849429  .00005826  00000+0  44513-3 0  9993
2 39417  97.8063 203.8085 0041516   9.1202 351.0767 15.01659092691672
GOMX-1                  
1 39430U 13066Q   26241.17707920  .00001227  00000+0  18990-3 0  9994
2 39430  97.6446  77.0390 0127427 202.3518 157.2107 14.69642599680638
CUBEBUG-2 (LO-74)       
1 39440U 13066AA  26240.79889449  .00003013  00000+0  27787-3 0  9998
2 39440  97.8952 190.1268 0057924 145.2051 215.2978 14.94176704687833
FUNCUBE-1 (AO-73)       
1 39444U 13066AE  26240.88684652  .00008136  00000+0  49250-3 0  9991
2 39444  97.8343 213.9256 0034373 318.5398  41.3223 15.10395417690630
UWE-3                   
1 39446U 13066AG  26241.12823631  .00003537  00000+0  30154-3 0  9996
2 39446  97.8764 197.7392 0049905  76.3519 284.3252 14.97442412688494
UNISAT-6                
1 40012U 14033C   26241.14248522  .00002688  00000+0  28969-3 0  9991
2 40012  97.7975  32.6267 0044606 186.1243 173.9435 14.88549301657018
DUCHIFAT-1              
1 40021U 14033M   26241.17804388  .00477308  87871-4  16577-2 0  9994
2 40021  98.0300 311.7423 0005555 222.0673 138.0172 15.89375881667233
QB50P1                  
1 40025U 14033R   26241.01766147  .00007816  00000+0  37406-3 0  9993
2 40025  98.0967 257.3309 0007921 347.9076  12.1965 15.19254465664086
LILACSAT-2              
1 40908U 15049K   26241.16471554  .00019698  00000+0  30841-3 0  9999
2 40908  97.4584 280.8755 0005966   3.4987 356.6307 15.53761161607078
FOX-1A (AO-85)          
1 40967U 15058D   26240.91854369  .00002087  00000+0  18986-3 0  9995
2 40967  64.7743  52.8863 0136374  29.2033 331.6614 14.91338474124414
CAS-2T & KS-1Q          
1 41847U 16066G   26241.16519850  .00000522  00000+0  83381-4 0  9998
2 41847  98.3773 316.0651 0340022 268.1065  88.1161 14.44818774515334
RADFXSAT (FOX-1B)       
1 43017U 17073E   26240.15602694  .00007487  00000+0  31795-3 0  9993
2 43017  97.4597 105.9022 0149743  80.0220 281.7873 15.13653168476278
DIWATA-2B               
1 43678U 18084H   26241.18651770  .00001110  00000+0  92837-4 0  9994
2 43678  98.1193  80.6071 0010552 287.3039  72.7028 15.00684375427163
ES'HAIL 2               
1 43700U 18090A   26241.11443933  .00000146  00000+0  00000+0 0  9994
2 43700   0.0146 121.3866 0002613  68.8612 214.0646  1.00273088 28403
FOX-1CLIFF (AO-95)      
1 43770U 18099N   26241.12323035  .00012140  00000+0  44473-3 0  9994
2 43770  97.4320 301.1473 0010049  91.5171 268.7219 15.28114282424352
ITASAT                  
1 43786U 18099AE  26241.12031933  .00006129  00000+0  28818-3 0  9999
2 43786  97.3965 291.1918 0014074  97.5879 262.6955 15.19854434423986
JY1SAT (JO-97)          
1 43803U 18099AX  26241.11861461  .00018567  00000+0  53408-3 0  9997
2 43803  97.4065 304.2943 0005615  27.2782 332.8756 15.35824892424811
UWE-4                   
1 43880U 18111E   26240.27691064  .00036103  00000+0  63180-3 0  9997
2 43880  97.5824 172.2206 0009721  72.1810 288.0501 15.50489824421937
TIANYAN 01              
1 44881U 19093C   26241.14374679  .00000506  00000+0  62995-4 0  9998
2 44881  97.7485 311.5792 0012867 201.1121 158.9565 14.86612365362256
RS-44 & BREEZE-KM R/B   
1 44909U 19096E   26241.18113201  .00000031  00000+0  85461-4 0  9994
2 44909  82.5202 291.2084 0216935 333.9850  25.0472 12.79749044311686
SALSAT                  
1 46495U 20068K   26240.00897782  .00007891  00000+0  26828-3 0  9992
2 46495  97.8878 247.5086 0010918  57.2315 302.9975 15.30706055326346
XW-3 (CAS-9)            
1 50466U 21131B   26240.94323729  .00000182  00000+0  69767-4 0  9991
2 50466  98.4984 332.9382 0003081 227.7178 132.3751 14.41412783245593
GREENCUBE (IO-117)      
1 53109U 22080E   26239.46575602 -.00000003  00000+0  00000+0 0  9999
2 53109  70.1259 273.4568 0009214 273.8874  86.0732  6.42583681 96648
UMKA 1 (RS40S)          
1 57172U 23091G   26240.91229547  .00005764  00000+0  25870-3 0  9996
2 57172  97.4987 299.3408 0011428 219.3942 140.6463 15.21525983175063
CUBESX-HSE 3 (RS42S)    
1 57178U 23091N   26240.86847070  .00013701  00000+0  43380-3 0  9999
2 57178  97.5033 307.4358 0010122 185.1962 174.9176 15.32821940175558
MONITOR-3 (RS58S)       
1 57180U 23091Q   26240.86513872  .00010271  00000+0  36552-3 0  9994
2 57180  97.5023 304.8868 0010822 194.7320 165.3606 15.29104766175398
MONITOR-4 (RS57S)       
1 57182U 23091S   26240.90545184  .00010386  00000+0  36853-3 0  9993
2 57182  97.5016 304.9026 0010815 194.9355 165.1567 15.29198878175404
MONITOR-2 (RS39S)       
1 57184U 23091U   26240.89651515  .00004499  00000+0  21508-3 0  9998
2 57184  97.5008 298.7124 0010081 212.0137 148.0486 15.19480944174991
SVYATOBOR 1 (RS60S)     
1 57187U 23091X   26240.85490034  .00008888  00000+0  33086-3 0  9994
2 57187  97.5030 305.1054 0008936 185.9897 174.1237 15.27685001175402
VIZARD-METEO (RS38S)    
1 57189U 23091Z   26240.86412966  .00017733  00000+0  47379-3 0  9994
2 57189  97.5036 311.8952 0007488 159.3160 200.8389 15.38123911175853
POLYTECH-UNIVERSE 3 (R*)
1 57191U 23091AB  26240.91354260  .00004684  00000+0  22213-3 0  9996
2 57191  97.4983 298.2341 0013922 231.8061 128.1920 15.19697284174997
UTMN 2 (RS27S)          
1 57203U 23091AP  26240.91258329  .00013448  00000+0  41537-3 0  9997
2 57203  97.5030 309.2018 0007954 168.5332 191.6093 15.33634848175680
KUZGTU 1 (RS47S)        
1 57217U 23091AV  26240.86207413  .00012248  00000+0  40667-3 0  9994
2 57217  97.5004 306.1353 0010245 189.7134 170.3910 15.31318794175494
SONATE-2                
1 59112U 24043Q   26240.87419799  .00048661  00000+0  50886-3 0  9993
2 59112  97.5602  36.0751 0004870 290.4308  69.6427 15.64309849139237
MESAT1                  
1 60209U 24125G   26240.56074760  .00074452  00000+0  55818-3 0  9991
2 60209  97.2157 100.1169 0005297 306.4241  53.6534 15.72391471120909
GRBBETA                 
1 60237U 24128C   26240.61714807  .00003016  00000+0  21228-3 0  9990
2 60237  61.9916 322.0591 0030257 150.5287 209.7520 15.07088873117189
OOV-CUBE (TUBSAT-30)    
1 60240U 24128F   26240.70967357  .00001957  00000+0  15836-3 0  9994
2 60240  61.9971 332.6394 0034650 150.4213 209.8848 15.03045074117019
COLIBRI-S (RS67S)       
1 61746U 24199M   26240.92267487  .00026134  00000+0  45653-3 0  9999
2 61746  97.2853 115.5448 0008590  30.2691 329.9055 15.50612218148671
HORS 3 (RS81S)          
1 61753U 24199U   26240.88241669  .00048056  00000+0  59038-3 0  9995
2 61753  97.2841 118.3934 0006127  36.9615 323.2063 15.60131104148879
HORS 4 (RS82S)          
1 61754U 24199V   26240.89433983  .00082212  00000+0  76253-3 0  9999
2 61754  97.2775 120.1899 0004603  37.1892 322.9687 15.67201581149002
SIT-2086                
1 61764U 24199AF  26240.88433688  .00047641  00000+0  62855-3 0  9991
2 61764  97.2797 118.6191 0005761  19.3256 340.8218 15.58243005145738
ALTAIR (RS65S)          
1 61779U 24199AW  26240.86804167  .00008627  00000+0  23036-3 0  9998
2 61779  97.2913 109.7612 0013738  50.4127 309.8329 15.38251018148281
ASRTU-1 (AO-123)        
1 61781U 24199AY  26240.92619962  .00007947  00000+0  22368-3 0  9996
2 61781  97.2882 108.9473 0014967  52.4830 307.7772 15.36625487145091
SAMSAT-IONOSPHERE (RS7*)
1 61784U 24199BB  26240.88450625  .00076146  00000+0  78594-3 0  9992
2 61784  97.2797 118.7873 0007258  31.7046 328.4649 15.64517865148903
RTU MIREA 1 (RS51S)     
1 61785U 24199BC  26240.89316265  .00104500  00000+0  85131-3 0  9996
2 61785  97.2778 120.1112 0006104  33.5407 326.6241 15.70299521145847
LASARSAT                
1 62391U 24247Q   26239.00061145  .00036753  00000+0  62768-3 0  9994
2 62391  44.9711 222.9854 0007545  67.9259 292.2433 15.50706273 94295
CROCUBE                 
1 62394U 24247T   26240.37544953  .00046690  00000+0  72007-3 0  9990
2 62394  44.9690 211.1456 0007712  89.1274 271.0502 15.53448460 94556
TEVEL2-4                
1 63213U 25052D   26240.24276209  .00017369  00000+0  48213-3 0  9991
2 63213  97.3798 136.8374 0002426 152.6713 207.4659 15.36965025 81173
TEVEL2-5                
1 63214U 25052E   26240.66295125  .00016715  00000+0  46711-3 0  9991
2 63214  97.3793 137.1847 0002278 152.5562 207.5803 15.36763998 81238
TEVEL2-6                
1 63215U 25052F   26239.43972244  .00020833  00000+0  58259-3 0  9995
2 63215  97.3805 135.9421 0002084 154.2215 205.9134 15.36696664 81049
TEVEL2-1                
1 63217U 25052H   26240.66803541  .00016353  00000+0  46672-3 0  9995
2 63217  97.3767 136.7077 0001827 168.9048 191.2237 15.36110059 81213
TEVEL2-3                
1 63218U 25052J   26240.26880765  .00017190  00000+0  48949-3 0  9994
2 63218  97.3777 136.3404 0001607 160.4599 199.6707 15.36172497 81150
TEVEL2-2                
1 63219U 25052K   26240.01638888  .00019449  00000+0  55452-3 0  9991
2 63219  97.3772 136.0583 0001647 171.1771 188.9502 15.36106751 81116
OTP-2                   
1 63235U 25052AB  26240.49705389  .00005598  00000+0  22827-3 0  9992
2 63235  97.3759 131.8529 0004192 268.5441  91.5316 15.24835578 80883
TEVEL2-9                
1 63237U 25052AD  26240.22123091  .00014740  00000+0  45085-3 0  9999
2 63237  97.3831 135.4730 0003986 232.3735 127.7146 15.33944175 81063
TEVEL2-7                
1 63238U 25052AE  26240.66872846  .00014251  00000+0  44066-3 0  9992
2 63238  97.3833 135.8029 0003983 230.7887 129.3002 15.33604228 81126
TEVEL2-8                
1 63239U 25052AF  26240.22087701  .00014520  00000+0  44923-3 0  9994
2 63239  97.3834 135.3304 0003971 234.8700 125.2171 15.33582876 81053
INNOSAT 16 (RS92S7)     
1 64878U 25155C   26240.86229799  .00005491  00000+0  21523-3 0  9991
2 64878  97.4643 207.8262 0008454 294.6056  65.4301 15.26157817 91752
GEOSCAN 6 (RS92S6)      
1 64879U 25155D   26240.87017364  .00010772  00000+0  35723-3 0  9991
2 64879  97.4630 209.8012 0005341 283.5171  76.5475 15.31428678 91882
GEOSCAN 1 (RS92S1)      
1 64880U 25155E   26240.90682972  .00011472  00000+0  37197-3 0  9995
2 64880  97.4625 210.0552 0005238 283.2153  76.8504 15.32138491 91904
239ALFEROV (RS61S)      
1 64881U 25155F   26240.89226797  .00015255  00000+0  45422-3 0  9996
2 64881  97.4622 210.8703 0004593 281.4306  78.6421 15.34787285 91957
GEOSCAN 2 (RS92S2)      
1 64890U 25155Q   26240.88832320  .00011256  00000+0  36224-3 0  9997
2 64890  97.4625 210.2168 0004552 263.3790  96.6933 15.32385240 91917
GEOSCAN 5 (RS92S5)      
1 64891U 25155R   26240.86695726  .00016177  00000+0  47711-3 0  9993
2 64891  97.4614 211.0086 0003561 291.3392  68.7471 15.35079761 91965
GEOSCAN 4 (RS92S4)      
1 64892U 25155S   26240.90817572  .00015613  00000+0  45780-3 0  9992
2 64892  97.4619 211.1225 0003401 291.2842  68.8038 15.35271375 91975
GEOSCAN 3 (RS92S3)      
1 64893U 25155T   26240.86912464  .00020386  00000+0  55154-3 0  9993
2 64893  97.4605 211.7469 0003139 290.6289  69.4618 15.37729786 92016
INNOSAT 3 (RS92S0)      
1 64894U 25155U   26240.91338829  .00050600  00000+0  92727-3 0  9996
2 64894  97.4538 214.4606 0000542 277.4713  82.6476 15.49152749 92207
KNACKSAT-2              
1 67683U 98067XZ  26240.33115742  .00046541  00000+0  43464-3 0  9993
2 67683  51.6256 289.7962 0007444  93.0444 267.1404 15.66786499 31563
MARINA                  
1 69920U 26156BD  26240.45126307  .00001891  00000+0  19152-3 0  9997
2 69920  97.7465 140.0531 0007296 354.7278   5.3863 14.92105327  7770
